SITRO-AIS 26            
1 59067U 24039S   24073.60634277  .00007048  00000+0  69680-3 0  9996
2 59067  95.3945  32.7401 0173543 311.9807  46.6737 14.81413650  1954
SITRO-AIS 27            
1 59068U 24039T   24073.60546746  .00007673  00000+0  75660-3 0  9999
2 59068  95.3947  32.7417 0173366 311.8797  46.7738 14.81514967  1959
SITRO-AIS 28            
1 59071U 24039U   24073.60513195  .00007276  00000+0  71729-3 0  9996
2 59071  95.3948  32.7423 0173230 311.8832  46.7715 14.81550683  1951
